AQUA                    
1 27424U 02022A   26074.66011869  .00000997  00000+0  20869-3 0  9993
2 27424  98.4183  42.1342 0000641 103.3737  69.4172 14.61991726269603
CZ-4B R/B               
1 27432U 02024C   26074.60808267  .00000036  00000+0  41295-4 0  9995
2 27432  98.8826 127.9845 0050196   7.4782 146.4087 14.14548760230078
MIDORI II (ADEOS-II)    
1 27597U 02056A   26074.61408968  .00000282  00000+0  12871-3 0  9997
2 27597  98.7777  33.1329 0001365  36.2987 323.8287 14.29289843211140
H-2A R/B                
1 27601U 02056E   26074.66091962  .00000233  00000+0  95841-4 0  9995
2 27601  98.3211  34.7994 0070846 143.0026  30.1097 14.33764677214969
CZ-4B R/B               
1 28059U 03049C   26074.50385074  .00000342  00000+0  90141-4 0  9998
2 28059  98.6882  69.6370 0047495 212.8348 146.9894 14.55025829187441
CZ-2C R/B               
1 28222U 04012C   26074.42814366  .00063545  00000+0  63634-3 0  9993
2 28222  97.7223 140.2670 0012932 285.8199  74.1633 15.65255528205170
SL-16 R/B               
1 28353U 04021B   26074.53829269 -.00000288  00000+0 -12519-3 0  9991
2 28353  70.9997 220.2181 0004377   1.3667 358.7466 14.14595499123662
CZ-4B R/B               
1 28415U 04035C   26074.53697925  .00007467  00000+0  26281-3 0  9992
2 28415  97.3497 108.7098 0030416 309.9178  49.9390 15.29174243180804
CZ-2C R/B               
1 28480U 04046B   26074.51578323  .00000106  00000+0  54190-4 0  9998
2 28480  98.1981 349.1370 0140197 137.2818 223.9365 14.26994103109334
ARIANE 5 R/B            
1 28499U 04049H   26074.42630489  .00000780  00000+0  92565-4 0  9999
2 28499  98.2635 243.0983 0083537 333.2546  26.4371 14.85276912146647
CZ-2D R/B               
1 28738U 05024B   26074.54495721  .00038524  00000+0  46378-3 0  9997
2 28738  97.3596  89.9082 0004831  31.7572 328.3976 15.60717417140693
ALOS (DAICHI)           
1 28931U 06002A   26074.62980399  .00001290  00000+0  22418-3 0  9997
2 28931  98.1226  30.5558 0000747  69.0777 291.0509 14.69829797 74350
