CCSDS_OMM_VERS = 2.0
CREATION_DATE  = 
ORIGINATOR     = 

OBJECT_NAME    = AQUA
OBJECT_ID      = 2002-022A
CENTER_NAME    = EARTH
REF_FRAME      = TEME
TIME_SYSTEM    = UTC
MEAN_ELEMENT_THEORY = SGP/SGP4

EPOCH          = 2026-03-15T15:50:34.254816
MEAN_MOTION    = 14.61991726
ECCENTRICITY   = .00006418
INCLINATION    = 98.4183
RA_OF_ASC_NODE = 42.1342
ARG_OF_PERICENTER = 103.3737
MEAN_ANOMALY   = 69.4172

EPHEMERIS_TYPE = 0
CLASSIFICATION_TYPE = U
NORAD_CAT_ID   = 27424
ELEMENT_SET_NO = 999
REV_AT_EPOCH   = 26960
BSTAR          = .20868561E-3
MEAN_MOTION_DOT = .997E-5
MEAN_MOTION_DDOT = 0

CCSDS_OMM_VERS = 2.0
CREATION_DATE  = 
ORIGINATOR     = 

OBJECT_NAME    = CZ-4B R/B
OBJECT_ID      = 2002-024C
CENTER_NAME    = EARTH
REF_FRAME      = TEME
TIME_SYSTEM    = UTC
MEAN_ELEMENT_THEORY = SGP/SGP4

EPOCH          = 2026-03-15T14:35:38.342688
MEAN_MOTION    = 14.14548760
ECCENTRICITY   = .00501963
INCLINATION    = 98.8826
RA_OF_ASC_NODE = 127.9845
ARG_OF_PERICENTER = 7.4782
MEAN_ANOMALY   = 146.4087

EPHEMERIS_TYPE = 0
CLASSIFICATION_TYPE = U
NORAD_CAT_ID   = 27432
ELEMENT_SET_NO = 999
REV_AT_EPOCH   = 23007
BSTAR          = .41294841E-4
MEAN_MOTION_DOT = .36E-6
MEAN_MOTION_DDOT = 0

CCSDS_OMM_VERS = 2.0
CREATION_DATE  = 
ORIGINATOR     = 

OBJECT_NAME    = MIDORI II (ADEOS-II)
OBJECT_ID      = 2002-056A
CENTER_NAME    = EARTH
REF_FRAME      = TEME
TIME_SYSTEM    = UTC
MEAN_ELEMENT_THEORY = SGP/SGP4

EPOCH          = 2026-03-15T14:44:17.348352
MEAN_MOTION    = 14.29289843
ECCENTRICITY   = .00013653
INCLINATION    = 98.7777
RA_OF_ASC_NODE = 33.1329
ARG_OF_PERICENTER = 36.2987
MEAN_ANOMALY   = 323.8287

EPHEMERIS_TYPE = 0
CLASSIFICATION_TYPE = U
NORAD_CAT_ID   = 27597
ELEMENT_SET_NO = 999
REV_AT_EPOCH   = 21114
BSTAR          = .12871388E-3
MEAN_MOTION_DOT = .282E-5
MEAN_MOTION_DDOT = 0

CCSDS_OMM_VERS = 2.0
CREATION_DATE  = 
ORIGINATOR     = 

OBJECT_NAME    = H-2A R/B
OBJECT_ID      = 2002-056E
CENTER_NAME    = EARTH
REF_FRAME      = TEME
TIME_SYSTEM    = UTC
MEAN_ELEMENT_THEORY = SGP/SGP4

EPOCH          = 2026-03-15T15:51:43.455168
MEAN_MOTION    = 14.33764677
ECCENTRICITY   = .00708464
INCLINATION    = 98.3211
RA_OF_ASC_NODE = 34.7994
ARG_OF_PERICENTER = 143.0026
MEAN_ANOMALY   = 30.1097

EPHEMERIS_TYPE = 0
CLASSIFICATION_TYPE = U
NORAD_CAT_ID   = 27601
ELEMENT_SET_NO = 999
REV_AT_EPOCH   = 21496
BSTAR          = .95840847E-4
MEAN_MOTION_DOT = .233E-5
MEAN_MOTION_DDOT = 0

CCSDS_OMM_VERS = 2.0
CREATION_DATE  = 
ORIGINATOR     = 

OBJECT_NAME    = CZ-4B R/B
OBJECT_ID      = 2003-049C
CENTER_NAME    = EARTH
REF_FRAME      = TEME
TIME_SYSTEM    = UTC
MEAN_ELEMENT_THEORY = SGP/SGP4

EPOCH          = 2026-03-15T12:05:32.703936
MEAN_MOTION    = 14.55025829
ECCENTRICITY   = .00474956
INCLINATION    = 98.6882
RA_OF_ASC_NODE = 69.6370
ARG_OF_PERICENTER = 212.8348
MEAN_ANOMALY   = 146.9894

EPHEMERIS_TYPE = 0
CLASSIFICATION_TYPE = U
NORAD_CAT_ID   = 28059
ELEMENT_SET_NO = 999
REV_AT_EPOCH   = 18744
BSTAR          = .90140702E-4
MEAN_MOTION_DOT = .342E-5
MEAN_MOTION_DDOT = 0

CCSDS_OMM_VERS = 2.0
CREATION_DATE  = 
ORIGINATOR     = 

OBJECT_NAME    = CZ-2C R/B
OBJECT_ID      = 2004-012C
CENTER_NAME    = EARTH
REF_FRAME      = TEME
TIME_SYSTEM    = UTC
MEAN_ELEMENT_THEORY = SGP/SGP4

EPOCH          = 2026-03-15T10:16:31.612224
MEAN_MOTION    = 15.65255528
ECCENTRICITY   = .00129321
INCLINATION    = 97.7223
RA_OF_ASC_NODE = 140.2670
ARG_OF_PERICENTER = 285.8199
MEAN_ANOMALY   = 74.1633

EPHEMERIS_TYPE = 0
CLASSIFICATION_TYPE = U
NORAD_CAT_ID   = 28222
ELEMENT_SET_NO = 999
REV_AT_EPOCH   = 20517
BSTAR          = .63634019E-3
MEAN_MOTION_DOT = .63545E-3
MEAN_MOTION_DDOT = 0

CCSDS_OMM_VERS = 2.0
CREATION_DATE  = 
ORIGINATOR     = 

OBJECT_NAME    = SL-16 R/B
OBJECT_ID      = 2004-021B
CENTER_NAME    = EARTH
REF_FRAME      = TEME
TIME_SYSTEM    = UTC
MEAN_ELEMENT_THEORY = SGP/SGP4

EPOCH          = 2026-03-15T12:55:08.488416
MEAN_MOTION    = 14.14595499
ECCENTRICITY   = .00043771
INCLINATION    = 70.9997
RA_OF_ASC_NODE = 220.2181
ARG_OF_PERICENTER = 1.3667
MEAN_ANOMALY   = 358.7466

EPHEMERIS_TYPE = 0
CLASSIFICATION_TYPE = U
NORAD_CAT_ID   = 28353
ELEMENT_SET_NO = 999
REV_AT_EPOCH   = 12366
BSTAR          = -.12518873E-3
MEAN_MOTION_DOT = -.288E-5
MEAN_MOTION_DDOT = 0

CCSDS_OMM_VERS = 2.0
CREATION_DATE  = 
ORIGINATOR     = 

OBJECT_NAME    = CZ-4B R/B
OBJECT_ID      = 2004-035C
CENTER_NAME    = EARTH
REF_FRAME      = TEME
TIME_SYSTEM    = UTC
MEAN_ELEMENT_THEORY = SGP/SGP4

EPOCH          = 2026-03-15T12:53:15.007200
MEAN_MOTION    = 15.29174243
ECCENTRICITY   = .00304164
INCLINATION    = 97.3497
RA_OF_ASC_NODE = 108.7098
ARG_OF_PERICENTER = 309.9178
MEAN_ANOMALY   = 49.9390

EPHEMERIS_TYPE = 0
CLASSIFICATION_TYPE = U
NORAD_CAT_ID   = 28415
ELEMENT_SET_NO = 999
REV_AT_EPOCH   = 18080
BSTAR          = .26281139E-3
MEAN_MOTION_DOT = .7467E-4
MEAN_MOTION_DDOT = 0

CCSDS_OMM_VERS = 2.0
CREATION_DATE  = 
ORIGINATOR     = 

OBJECT_NAME    = CZ-2C R/B
OBJECT_ID      = 2004-046B
CENTER_NAME    = EARTH
REF_FRAME      = TEME
TIME_SYSTEM    = UTC
MEAN_ELEMENT_THEORY = SGP/SGP4

EPOCH          = 2026-03-15T12:22:43.671072
MEAN_MOTION    = 14.26994103
ECCENTRICITY   = .01401974
INCLINATION    = 98.1981
RA_OF_ASC_NODE = 349.1370
ARG_OF_PERICENTER = 137.2818
MEAN_ANOMALY   = 223.9365

EPHEMERIS_TYPE = 0
CLASSIFICATION_TYPE = U
NORAD_CAT_ID   = 28480
ELEMENT_SET_NO = 999
REV_AT_EPOCH   = 10933
BSTAR          = .54190481E-4
MEAN_MOTION_DOT = .106E-5
MEAN_MOTION_DDOT = 0

CCSDS_OMM_VERS = 2.0
CREATION_DATE  = 
ORIGINATOR     = 

OBJECT_NAME    = ARIANE 5 R/B
OBJECT_ID      = 2004-049H
CENTER_NAME    = EARTH
REF_FRAME      = TEME
TIME_SYSTEM    = UTC
MEAN_ELEMENT_THEORY = SGP/SGP4

EPOCH          = 2026-03-15T10:13:52.742496
MEAN_MOTION    = 14.85276912
ECCENTRICITY   = .00835372
INCLINATION    = 98.2635
RA_OF_ASC_NODE = 243.0983
ARG_OF_PERICENTER = 333.2546
MEAN_ANOMALY   = 26.4371

EPHEMERIS_TYPE = 0
CLASSIFICATION_TYPE = U
NORAD_CAT_ID   = 28499
ELEMENT_SET_NO = 999
REV_AT_EPOCH   = 14664
BSTAR          = .92565312E-4
MEAN_MOTION_DOT = .78E-5
MEAN_MOTION_DDOT = 0

CCSDS_OMM_VERS = 2.0
CREATION_DATE  = 
ORIGINATOR     = 

OBJECT_NAME    = CZ-2D R/B
OBJECT_ID      = 2005-024B
CENTER_NAME    = EARTH
REF_FRAME      = TEME
TIME_SYSTEM    = UTC
MEAN_ELEMENT_THEORY = SGP/SGP4

EPOCH          = 2026-03-15T13:04:44.302944
MEAN_MOTION    = 15.60717417
ECCENTRICITY   = .00048318
INCLINATION    = 97.3596
RA_OF_ASC_NODE = 89.9082
ARG_OF_PERICENTER = 31.7572
MEAN_ANOMALY   = 328.3976

EPHEMERIS_TYPE = 0
CLASSIFICATION_TYPE = U
NORAD_CAT_ID   = 28738
ELEMENT_SET_NO = 999
REV_AT_EPOCH   = 14069
BSTAR          = .46378086E-3
MEAN_MOTION_DOT = .38524E-3
MEAN_MOTION_DDOT = 0

CCSDS_OMM_VERS = 2.0
CREATION_DATE  = 
ORIGINATOR     = 

OBJECT_NAME    = ALOS (DAICHI)
OBJECT_ID      = 2006-002A
CENTER_NAME    = EARTH
REF_FRAME      = TEME
TIME_SYSTEM    = UTC
MEAN_ELEMENT_THEORY = SGP/SGP4

EPOCH          = 2026-03-15T15:06:55.064736
MEAN_MOTION    = 14.69829797
ECCENTRICITY   = .00007477
INCLINATION    = 98.1226
RA_OF_ASC_NODE = 30.5558
ARG_OF_PERICENTER = 69.0777
MEAN_ANOMALY   = 291.0509

EPHEMERIS_TYPE = 0
CLASSIFICATION_TYPE = U
NORAD_CAT_ID   = 28931
ELEMENT_SET_NO = 999
REV_AT_EPOCH   = 7435
BSTAR          = .22418332E-3
MEAN_MOTION_DOT = .129E-4
MEAN_MOTION_DDOT = 0

